[{"OBJECT_NAME":"STARLINK-30929","OBJECT_ID":"2023-178N","EPOCH":"2026-03-13T01:53:52.644192","MEAN_MOTION":15.30183699,"ECCENTRICITY":0.00015166,"INCLINATION":53.1624,"RA_OF_ASC_NODE":345.6012,"ARG_OF_PERICENTER":66.2828,"MEAN_ANOMALY":293.8332,"EPHEMERIS_TYPE":0,"CLASSIFICATION_TYPE":"U","NORAD_CAT_ID":58386,"ELEMENT_SET_NO":999,"REV_AT_EPOCH":13038,"BSTAR":-1.850359e-6,"MEAN_MOTION_DOT":-4.14e-6,"MEAN_MOTION_DDOT":0},{"OBJECT_NAME":"STARLINK-30898","OBJECT_ID":"2023-178P","EPOCH":"2026-03-13T03:14:16.125504","MEAN_MOTION":15.30187421,"ECCENTRICITY":8.922e-5,"INCLINATION":53.1602,"RA_OF_ASC_NODE":345.3118,"ARG_OF_PERICENTER":109.251,"MEAN_ANOMALY":250.8587,"EPHEMERIS_TYPE":0,"CLASSIFICATION_TYPE":"U","NORAD_CAT_ID":58387,"ELEMENT_SET_NO":999,"REV_AT_EPOCH":13041,"BSTAR":4.18116e-5,"MEAN_MOTION_DOT":8.79e-6,"MEAN_MOTION_DDOT":0},{"OBJECT_NAME":"STARLINK-30913","OBJECT_ID":"2023-178Q","EPOCH":"2026-03-13T04:28:36.551424","MEAN_MOTION":15.30178805,"ECCENTRICITY":0.00011689,"INCLINATION":53.1611,"RA_OF_ASC_NODE":345.0511,"ARG_OF_PERICENTER":82.9776,"MEAN_ANOMALY":277.1358,"EPHEMERIS_TYPE":0,"CLASSIFICATION_TYPE":"U","NORAD_CAT_ID":58388,"ELEMENT_SET_NO":999,"REV_AT_EPOCH":13042,"BSTAR":-3.0537145e-5,"MEAN_MOTION_DOT":-1.263e-5,"MEAN_MOTION_DDOT":0},{"OBJECT_NAME":"STARLINK-30938","OBJECT_ID":"2023-178R","EPOCH":"2026-03-13T01:23:31.577568","MEAN_MOTION":15.3018978,"ECCENTRICITY":8.587e-5,"INCLINATION":53.1595,"RA_OF_ASC_NODE":345.6749,"ARG_OF_PERICENTER":69.356,"MEAN_ANOMALY":290.7533,"EPHEMERIS_TYPE":0,"CLASSIFICATION_TYPE":"U","NORAD_CAT_ID":58389,"ELEMENT_SET_NO":999,"REV_AT_EPOCH":13040,"BSTAR":3.401905e-5,"MEAN_MOTION_DOT":6.48e-6,"MEAN_MOTION_DDOT":0},{"OBJECT_NAME":"STARLINK-30868","OBJECT_ID":"2023-178S","EPOCH":"2026-03-13T04:19:28.651872","MEAN_MOTION":15.30187321,"ECCENTRICITY":0.00010637,"INCLINATION":53.1607,"RA_OF_ASC_NODE":345.0145,"ARG_OF_PERICENTER":134.2287,"MEAN_ANOMALY":225.8802,"EPHEMERIS_TYPE":0,"CLASSIFICATION_TYPE":"U","NORAD_CAT_ID":58390,"ELEMENT_SET_NO":999,"REV_AT_EPOCH":13042,"BSTAR":4.4655078e-5,"MEAN_MOTION_DOT":9.63e-6,"MEAN_MOTION_DDOT":0},{"OBJECT_NAME":"STARLINK-30916","OBJECT_ID":"2023-178T","EPOCH":"2026-03-13T04:39:12.388896","MEAN_MOTION":15.3018901,"ECCENTRICITY":9.419e-5,"INCLINATION":53.1605,"RA_OF_ASC_NODE":344.999,"ARG_OF_PERICENTER":117.3755,"MEAN_ANOMALY":242.7341,"EPHEMERIS_TYPE":0,"CLASSIFICATION_TYPE":"U","NORAD_CAT_ID":58391,"ELEMENT_SET_NO":999,"REV_AT_EPOCH":13042,"BSTAR":1.5690769e-5,"MEAN_MOTION_DOT":1.06e-6,"MEAN_MOTION_DDOT":0},{"OBJECT_NAME":"STARLINK-30939","OBJECT_ID":"2023-178V","EPOCH":"2026-03-13T04:05:48.502464","MEAN_MOTION":15.3018218,"ECCENTRICITY":0.00011788,"INCLINATION":53.1615,"RA_OF_ASC_NODE":344.9543,"ARG_OF_PERICENTER":97.4725,"MEAN_ANOMALY":262.641,"EPHEMERIS_TYPE":0,"CLASSIFICATION_TYPE":"U","NORAD_CAT_ID":58393,"ELEMENT_SET_NO":999,"REV_AT_EPOCH":13029,"BSTAR":5.9705816e-5,"MEAN_MOTION_DOT":1.409e-5,"MEAN_MOTION_DDOT":0},{"OBJECT_NAME":"STARLINK-30887","OBJECT_ID":"2023-178W","EPOCH":"2026-03-13T01:49:19.246080","MEAN_MOTION":15.30187026,"ECCENTRICITY":0.00012096,"INCLINATION":53.1626,"RA_OF_ASC_NODE":345.6107,"ARG_OF_PERICENTER":89.7567,"MEAN_ANOMALY":270.3572,"EPHEMERIS_TYPE":0,"CLASSIFICATION_TYPE":"U","NORAD_CAT_ID":58394,"ELEMENT_SET_NO":999,"REV_AT_EPOCH":13038,"BSTAR":3.7118951e-5,"MEAN_MOTION_DOT":7.4e-6,"MEAN_MOTION_DDOT":0},{"OBJECT_NAME":"STARLINK-30934","OBJECT_ID":"2023-178X","EPOCH":"2026-03-13T02:50:00.254400","MEAN_MOTION":15.3018487,"ECCENTRICITY":9.252e-5,"INCLINATION":53.1616,"RA_OF_ASC_NODE":345.4121,"ARG_OF_PERICENTER":112.2334,"MEAN_ANOMALY":247.8765,"EPHEMERIS_TYPE":0,"CLASSIFICATION_TYPE":"U","NORAD_CAT_ID":58395,"ELEMENT_SET_NO":999,"REV_AT_EPOCH":13034,"BSTAR":4.0983919e-5,"MEAN_MOTION_DOT":8.55e-6,"MEAN_MOTION_DDOT":0},{"OBJECT_NAME":"STARLINK-30964","OBJECT_ID":"2023-180A","EPOCH":"2026-03-13T06:26:42.271584","MEAN_MOTION":15.27541195,"ECCENTRICITY":0.00020679,"INCLINATION":43.0026,"RA_OF_ASC_NODE":32.3052,"ARG_OF_PERICENTER":254.5891,"MEAN_ANOMALY":105.4732,"EPHEMERIS_TYPE":0,"CLASSIFICATION_TYPE":"U","NORAD_CAT_ID":58402,"ELEMENT_SET_NO":999,"REV_AT_EPOCH":12817,"BSTAR":-0.00018203746,"MEAN_MOTION_DOT":-5.262e-5,"MEAN_MOTION_DDOT":0},{"OBJECT_NAME":"STARLINK-30844","OBJECT_ID":"2023-180B","EPOCH":"2026-03-13T07:01:50.639808","MEAN_MOTION":15.27579402,"ECCENTRICITY":0.00016941,"INCLINATION":43.0032,"RA_OF_ASC_NODE":32.4998,"ARG_OF_PERICENTER":263.1815,"MEAN_ANOMALY":96.8844,"EPHEMERIS_TYPE":0,"CLASSIFICATION_TYPE":"U","NORAD_CAT_ID":58403,"ELEMENT_SET_NO":999,"REV_AT_EPOCH":12805,"BSTAR":2.3641608e-5,"MEAN_MOTION_DOT":3.88e-6,"MEAN_MOTION_DDOT":0},{"OBJECT_NAME":"STARLINK-30876","OBJECT_ID":"2023-180C","EPOCH":"2026-03-13T05:22:08.529312","MEAN_MOTION":15.27571103,"ECCENTRICITY":0.00017258,"INCLINATION":43.004,"RA_OF_ASC_NODE":32.8397,"ARG_OF_PERICENTER":267.944,"MEAN_ANOMALY":92.1214,"EPHEMERIS_TYPE":0,"CLASSIFICATION_TYPE":"U","NORAD_CAT_ID":58404,"ELEMENT_SET_NO":999,"REV_AT_EPOCH":12816,"BSTAR":7.9371845e-5,"MEAN_MOTION_DOT":1.922e-5,"MEAN_MOTION_DDOT":0},{"OBJECT_NAME":"STARLINK-30952","OBJECT_ID":"2023-180D","EPOCH":"2026-03-13T06:41:28.323456","MEAN_MOTION":15.27589263,"ECCENTRICITY":9.843e-5,"INCLINATION":43.0056,"RA_OF_ASC_NODE":32.3935,"ARG_OF_PERICENTER":278.976,"MEAN_ANOMALY":81.0981,"EPHEMERIS_TYPE":0,"CLASSIFICATION_TYPE":"U","NORAD_CAT_ID":58405,"ELEMENT_SET_NO":999,"REV_AT_EPOCH":12806,"BSTAR":0.00012136675,"MEAN_MOTION_DOT":3.08e-5,"MEAN_MOTION_DDOT":0},{"OBJECT_NAME":"STARLINK-30925","OBJECT_ID":"2023-180E","EPOCH":"2026-03-13T06:45:10.869120","MEAN_MOTION":15.27592346,"ECCENTRICITY":0.00012757,"INCLINATION":43.0069,"RA_OF_ASC_NODE":32.4101,"ARG_OF_PERICENTER":273.7261,"MEAN_ANOMALY":86.3445,"EPHEMERIS_TYPE":0,"CLASSIFICATION_TYPE":"U","NORAD_CAT_ID":58406,"ELEMENT_SET_NO":999,"REV_AT_EPOCH":12805,"BSTAR":-3.5496091e-5,"MEAN_MOTION_DOT":-1.239e-5,"MEAN_MOTION_DDOT":0},{"OBJECT_NAME":"STARLINK-30954","OBJECT_ID":"2023-180F","EPOCH":"2026-03-13T14:00:01.000224","MEAN_MOTION":15.27573301,"ECCENTRICITY":0.00015003,"INCLINATION":43.0008,"RA_OF_ASC_NODE":30.441,"ARG_OF_PERICENTER":254.7251,"MEAN_ANOMALY":74.0185,"EPHEMERIS_TYPE":0,"CLASSIFICATION_TYPE":"U","NORAD_CAT_ID":58407,"ELEMENT_SET_NO":999,"REV_AT_EPOCH":578,"BSTAR":-0.00010336674,"MEAN_MOTION_DOT":-3.105e-5,"MEAN_MOTION_DDOT":0},{"OBJECT_NAME":"STARLINK-30906","OBJECT_ID":"2023-180G","EPOCH":"2026-03-13T14:00:01.000224","MEAN_MOTION":15.26755262,"ECCENTRICITY":0.00022054,"INCLINATION":43.0009,"RA_OF_ASC_NODE":33.9401,"ARG_OF_PERICENTER":262.2993,"MEAN_ANOMALY":321.1734,"EPHEMERIS_TYPE":0,"CLASSIFICATION_TYPE":"U","NORAD_CAT_ID":58408,"ELEMENT_SET_NO":999,"REV_AT_EPOCH":573,"BSTAR":-0.00073660276,"MEAN_MOTION_DOT":-0.00019975,"MEAN_MOTION_DDOT":0},{"OBJECT_NAME":"STARLINK-30940","OBJECT_ID":"2023-180H","EPOCH":"2026-03-13T11:53:49.652448","MEAN_MOTION":15.27567586,"ECCENTRICITY":0.00024924,"INCLINATION":43.0031,"RA_OF_ASC_NODE":245.9667,"ARG_OF_PERICENTER":258.7995,"MEAN_ANOMALY":101.2577,"EPHEMERIS_TYPE":0,"CLASSIFICATION_TYPE":"U","NORAD_CAT_ID":58409,"ELEMENT_SET_NO":999,"REV_AT_EPOCH":12991,"BSTAR":-0.0001104032,"MEAN_MOTION_DOT":-3.298e-5,"MEAN_MOTION_DDOT":0},{"OBJECT_NAME":"STARLINK-30933","OBJECT_ID":"2023-180J","EPOCH":"2026-03-13T12:10:15.580128","MEAN_MOTION":15.27577794,"ECCENTRICITY":4.012e-5,"INCLINATION":42.9959,"RA_OF_ASC_NODE":245.1855,"ARG_OF_PERICENTER":282.942,"MEAN_ANOMALY":77.1387,"EPHEMERIS_TYPE":0,"CLASSIFICATION_TYPE":"U","NORAD_CAT_ID":58410,"ELEMENT_SET_NO":999,"REV_AT_EPOCH":12992,"BSTAR":3.1203472e-5,"MEAN_MOTION_DOT":5.97e-6,"MEAN_MOTION_DDOT":0},{"OBJECT_NAME":"STARLINK-30919","OBJECT_ID":"2023-180K","EPOCH":"2026-03-13T07:21:57.791232","MEAN_MOTION":15.27582304,"ECCENTRICITY":0.00013491,"INCLINATION":43.0019,"RA_OF_ASC_NODE":31.6641,"ARG_OF_PERICENTER":272.1095,"MEAN_ANOMALY":87.9602,"EPHEMERIS_TYPE":0,"CLASSIFICATION_TYPE":"U","NORAD_CAT_ID":58411,"ELEMENT_SET_NO":999,"REV_AT_EPOCH":12808,"BSTAR":0.00020272512,"MEAN_MOTION_DOT":5.321e-5,"MEAN_MOTION_DDOT":0},{"OBJECT_NAME":"STARLINK-30924","OBJECT_ID":"2023-180L","EPOCH":"2026-03-13T12:42:18.871776","MEAN_MOTION":15.32095182,"ECCENTRICITY":0.00015438,"INCLINATION":43.0021,"RA_OF_ASC_NODE":242.7569,"ARG_OF_PERICENTER":277.2359,"MEAN_ANOMALY":82.8319,"EPHEMERIS_TYPE":0,"CLASSIFICATION_TYPE":"U","NORAD_CAT_ID":58412,"ELEMENT_SET_NO":999,"REV_AT_EPOCH":12995,"BSTAR":6.2710071e-5,"MEAN_MOTION_DOT":1.709e-5,"MEAN_MOTION_DDOT":0},{"OBJECT_NAME":"STARLINK-30931","OBJECT_ID":"2023-180M","EPOCH":"2026-03-13T06:16:53.460768","MEAN_MOTION":15.26736349,"ECCENTRICITY":0.0001348,"INCLINATION":43.0053,"RA_OF_ASC_NODE":21.1132,"ARG_OF_PERICENTER":263.5542,"MEAN_ANOMALY":96.5156,"EPHEMERIS_TYPE":0,"CLASSIFICATION_TYPE":"U","NORAD_CAT_ID":58413,"ELEMENT_SET_NO":999,"REV_AT_EPOCH":12830,"BSTAR":-1.8086344e-5,"MEAN_MOTION_DOT":-7.45e-6,"MEAN_MOTION_DDOT":0},{"OBJECT_NAME":"STARLINK-30922","OBJECT_ID":"2023-180N","EPOCH":"2026-03-13T14:00:01.000224","MEAN_MOTION":15.27575523,"ECCENTRICITY":0.00015875,"INCLINATION":43.0044,"RA_OF_ASC_NODE":30.7423,"ARG_OF_PERICENTER":270.9744,"MEAN_ANOMALY":290.4233,"EPHEMERIS_TYPE":0,"CLASSIFICATION_TYPE":"U","NORAD_CAT_ID":58414,"ELEMENT_SET_NO":999,"REV_AT_EPOCH":567,"BSTAR":-8.9441425e-5,"MEAN_MOTION_DOT":-2.722e-5,"MEAN_MOTION_DDOT":0},{"OBJECT_NAME":"STARLINK-30949","OBJECT_ID":"2023-180P","EPOCH":"2026-03-13T06:35:53.793888","MEAN_MOTION":15.27593955,"ECCENTRICITY":0.00018161,"INCLINATION":43.0061,"RA_OF_ASC_NODE":32.3318,"ARG_OF_PERICENTER":237.9929,"MEAN_ANOMALY":122.0747,"EPHEMERIS_TYPE":0,"CLASSIFICATION_TYPE":"U","NORAD_CAT_ID":58415,"ELEMENT_SET_NO":999,"REV_AT_EPOCH":12817,"BSTAR":0.0001057476,"MEAN_MOTION_DOT":2.65e-5,"MEAN_MOTION_DDOT":0}]
